NORAD_CAT_ID,OBJECT_NAME,OBJECT_TYPE,EPOCH,MEAN_MOTION,ECCENTRICITY,INCLINATION,RA_OF_ASC_NODE,ARG_OF_PERICENTER,MEAN_ANOMALY,BSTAR,MEAN_MOTION_DOT,MEAN_MOTION_DDOT,TLE_LINE0,TLE_LINE1,TLE_LINE2,SEMIMAJOR_AXIS,PERIOD,APOGEE,PERIGEE,DECAYED
51888.0,STARLINK-3536,PAYLOAD,2023-09-05 23:55:59,15.08841209,0.000142,53.2169,149.822,79.4394,280.6758,5.2253e-05,5.44e-06,0.0,0 STARLINK-3536,1 51888U 22022AN  23248.99721733  .00000544  00000-0  52253-4 0  9992,2 51888  53.2169 149.8220 0001420  79.4394 280.6758 15.08841209 85015,6917.877,95.437,540.724,538.759,0.0
51888.0,STARLINK-3536,PAYLOAD,2023-09-07 02:57:32,15.08848554,0.0001468,53.2167,144.7657,84.0454,276.0705,4.5242e-05,4.32e-06,0.0,0 STARLINK-3536,1 51888U 22022AN  23250.12329007  .00000432  00000-0  45242-4 0  9994,2 51888  53.2167 144.7657 0001468  84.0454 276.0705 15.08848554 85181,6917.854,95.437,540.735,538.704,0.0
51888.0,STARLINK-3536,PAYLOAD,2023-09-07 17:16:01,15.08835644,0.0001676,53.2183,142.0854,81.7297,278.3886,8.8241e-06,-1.48e-06,0.0,0 STARLINK-3536,1 51888U 22022AN  23250.71945941 -.00000148  00000-0  88241-5 0  9992,2 51888  53.2183 142.0854 0001676  81.7297 278.3886 15.08835644 85270,6917.894,95.438,540.918,538.599,0.0
51888.0,STARLINK-3536,PAYLOAD,2023-09-08 02:48:20,15.08836483,0.0001392,53.2165,140.3048,86.3437,273.7714,7.1847e-06,-1.74e-06,0.0,0 STARLINK-3536,1 51888U 22022AN  23251.11689926 -.00000174  00000-0  71847-5 0  9998,2 51888  53.2165 140.3048 0001392  86.3437 273.7714 15.08836483 85336,6917.891,95.438,540.719,538.793,0.0
51888.0,STARLINK-3536,PAYLOAD,2023-09-08 21:52:57,15.08839157,0.0001359,53.2172,136.7366,94.9506,265.1642,-2.6465e-05,-7.09e-06,0.0,0 STARLINK-3536,1 51888U 22022AN  23251.91178020 -.00000709  00000-0 -26465-4 0  9994,2 51888  53.2172 136.7366 0001359  94.9506 265.1642 15.08839157 85450,6917.883,95.438,540.688,538.808,0.0
51888.0,STARLINK-3536,PAYLOAD,2023-09-09 01:03:43,15.08843812,0.0001341,53.2179,136.141,92.9269,267.1877,-1.0076e-05,-4.48e-06,0.0,0 STARLINK-3536,1 51888U 22022AN  23252.04425702 -.00000448  00000-0 -10076-4 0  9992,2 51888  53.2179 136.1410 0001341  92.9269 267.1877 15.08843812 85473,6917.869,95.437,540.661,538.806,0.0
51888.0,STARLINK-3536,PAYLOAD,2023-09-09 09:00:39,15.088423,0.0001371,53.2181,134.6552,101.8406,258.274,-5.4822e-06,-3.75e-06,0.0,0 STARLINK-3536,1 51888U 22022AN  23252.37545720 -.00000375  00000-0 -54822-5 0  9998,2 51888  53.2181 134.6552 0001371 101.8406 258.2740 15.08842300 85529,6917.873,95.437,540.687,538.79,0.0
51888.0,STARLINK-3536,PAYLOAD,2023-09-10 00:54:31,15.08837325,0.0001373,53.2176,131.6829,94.0223,266.0926,6.9068e-05,8.11e-06,0.0,0 STARLINK-3536,1 51888U 22022AN  23253.03786177  .00000811  00000-0  69068-4 0  9995,2 51888  53.2176 131.6829 0001373  94.0223 266.0926 15.08837325 85624,6917.889,95.438,540.703,538.804,0.0
51888.0,STARLINK-3536,PAYLOAD,2023-09-10 02:29:54,15.08839229,0.0001407,53.2179,131.3852,92.6201,267.4952,8.1092e-05,1.003e-05,0.0,0 STARLINK-3536,1 51888U 22022AN  23253.10410044  .00001003  00000-0  81092-4 0  9995,2 51888  53.2179 131.3852 0001407  92.6201 267.4952 15.08839229 85638,6917.883,95.438,540.721,538.774,0.0
51888.0,STARLINK-3536,PAYLOAD,2023-09-11 08:42:14,15.08840391,0.0001366,53.2173,125.734,85.6882,274.4266,3.3222e-05,2.41e-06,0.0,0 STARLINK-3536,1 51888U 22022AN  23254.36266350  .00000241  00000-0  33222-4 0  9998,2 51888  53.2173 125.7340 0001366  85.6882 274.4266 15.08840391 85821,6917.879,95.438,540.689,538.799,0.0
51888.0,STARLINK-3536,PAYLOAD,2023-09-12 00:36:05,15.08844715,0.0001243,53.2167,122.7601,85.7279,274.3855,4.4735e-05,4.24e-06,0.0,0 STARLINK-3536,1 51888U 22022AN  23255.02506109  .00000424  00000-0  44735-4 0  9995,2 51888  53.2167 122.7601 0001243  85.7279 274.3855 15.08844715 85924,6917.866,95.437,540.591,538.871,0.0
51888.0,STARLINK-3536,PAYLOAD,2023-09-12 21:16:06,15.0884548,0.0001278,53.217,118.894,90.0843,270.0295,8.9692e-06,-1.45e-06,0.0,0 STARLINK-3536,1 51888U 22022AN  23255.88618266 -.00000145  00000-0  89692-5 0  9990,2 51888  53.2170 118.8940 0001278  90.0843 270.0295 15.08845480 86050,6917.864,95.437,540.613,538.845,0.0
51888.0,STARLINK-3536,PAYLOAD,2023-09-13 17:56:06,15.08869905,0.0001512,53.2167,115.0283,81.5443,278.5721,-0.00038517,-6.418e-05,0.0,0 STARLINK-3536,1 51888U 22022AN  23256.74729656 -.00006418  00000-0 -38517-3 0  9990,2 51888  53.2167 115.0283 0001512  81.5443 278.5721 15.08869905 86186,6917.789,95.436,540.7,538.608,0.0
51888.0,STARLINK-3536,PAYLOAD,2023-09-13 21:06:53,15.08840851,0.0001202,53.2168,114.434,93.5372,266.5758,3.4206e-05,2.57e-06,0.0,0 STARLINK-3536,1 51888U 22022AN  23256.87978452  .00000257  00000-0  34206-4 0  9999,2 51888  53.2168 114.4340 0001202  93.5372 266.5758 15.08840851 86203,6917.878,95.438,540.574,538.911,0.0
51888.0,STARLINK-3536,PAYLOAD,2023-09-14 00:17:39,15.08842405,0.0001197,53.2172,113.8385,92.6124,267.5005,4.8835e-05,4.89e-06,0.0,0 STARLINK-3536,1 51888U 22022AN  23257.01226309  .00000489  00000-0  48835-4 0  9993,2 51888  53.2172 113.8385 0001197  92.6124 267.5005 15.08842405 86223,6917.873,95.437,540.566,538.91,0.0
51888.0,STARLINK-3536,PAYLOAD,2023-09-14 09:49:58,15.08837229,0.0001048,53.2167,112.0559,94.3988,265.7124,5.5661e-05,5.98e-06,0.0,0 STARLINK-3536,1 51888U 22022AN  23257.40970591  .00000598  00000-0  55661-4 0  9991,2 51888  53.2167 112.0559 0001048  94.3988 265.7124 15.08837229 86289,6917.889,95.438,540.479,539.029,0.0
51888.0,STARLINK-3536,PAYLOAD,2023-09-14 20:57:40,15.08842754,0.0001177,53.2166,109.9748,83.8495,276.2631,2.0551e-05,3.9e-07,0.0,0 STARLINK-3536,1 51888U 22022AN  23257.87338498  .00000039  00000-0  20551-4 0  9996,2 51888  53.2166 109.9748 0001177  83.8495 276.2631 15.08842754 86359,6917.872,95.437,540.551,538.923,0.0
51888.0,STARLINK-3536,PAYLOAD,2023-09-15 00:08:26,15.08834673,0.0001118,53.2165,109.3796,89.9928,270.1192,0.00014659,2.046e-05,0.0,0 STARLINK-3536,1 51888U 22022AN  23258.00586551  .00002046  00000-0  14659-3 0  9998,2 51888  53.2165 109.3796 0001118  89.9928 270.1192 15.08834673 86376,6917.897,95.438,540.535,538.988,0.0
51888.0,STARLINK-3536,PAYLOAD,2023-09-16 06:20:46,15.08841234,0.0001206,53.2167,103.7293,86.6976,273.4154,5.8082e-05,6.37e-06,0.0,0 STARLINK-3536,1 51888U 22022AN  23259.26442536  .00000637  00000-0  58082-4 0  9994,2 51888  53.2167 103.7293 0001206  86.6976 273.4154 15.08841234 86569,6917.877,95.437,540.576,538.907,0.0
51888.0,STARLINK-3536,PAYLOAD,2023-09-16 14:17:41,15.08847258,9.38e-05,53.2162,102.2383,83.8855,276.2244,0.00015591,2.195e-05,0.0,0 STARLINK-3536,1 51888U 22022AN  23259.59561675  .00002195  00000-0  15591-3 0  9994,2 51888  53.2162 102.2383 0000938  83.8855 276.2244 15.08847258 86613,6917.858,95.437,540.372,539.074,0.0
51888.0,STARLINK-3536,PAYLOAD,2023-09-16 17:28:27,15.08853789,0.0001201,53.2166,101.6478,88.575,271.538,0.0001774,2.538e-05,0.0,0 STARLINK-3536,1 51888U 22022AN  23259.72809153  .00002538  00000-0  17740-3 0  9994,2 51888  53.2166 101.6478 0001201  88.5750 271.5380 15.08853789 86632,6917.838,95.437,540.534,538.872,0.0
51888.0,STARLINK-3536,PAYLOAD,2023-09-16 23:49:59,15.08859732,0.0001203,53.2168,100.4586,89.0807,271.0323,0.00018513,2.661e-05,0.0,0 STARLINK-3536,1 51888U 22022AN  23259.99304557  .00002661  00000-0  18513-3 0  9997,2 51888  53.2168 100.4586 0001203  89.0807 271.0323 15.08859732 86672,6917.82,95.436,540.517,538.853,0.0
51888.0,STARLINK-3536,PAYLOAD,2023-09-17 17:19:15,15.08841345,0.000139,53.2171,97.1841,111.6474,248.4666,3.3899e-06,-2.34e-06,0.0,0 STARLINK-3536,1 51888U 22022AN  23260.72170280 -.00000234  00000-0  33899-5 0  9995,2 51888  53.2171  97.1841 0001390 111.6474 248.4666 15.08841345 86782,6917.876,95.437,540.703,538.78,0.0
51888.0,STARLINK-3536,PAYLOAD,2023-09-17 20:30:02,15.08833008,0.0001352,53.2174,96.5926,83.6192,276.4954,-4.693e-05,-1.035e-05,0.0,0 STARLINK-3536,1 51888U 22022AN  23260.85419118 -.00001035  00000-0 -46930-4 0  9995,2 51888  53.2174  96.5926 0001352  83.6192 276.4954 15.08833008 86806,6917.902,95.438,540.702,538.831,0.0
51888.0,STARLINK-3536,PAYLOAD,2023-09-18 06:02:20,15.08833385,0.0001372,53.2176,94.8084,85.9676,274.1473,-3.526e-05,-8.49e-06,0.0,0 STARLINK-3536,1 51888U 22022AN  23261.25163166 -.00000849  00000-0 -35260-4 0  9995,2 51888  53.2176  94.8084 0001372  85.9676 274.1473 15.08833385 86863,6917.901,95.438,540.715,538.816,0.0
51888.0,STARLINK-3536,PAYLOAD,2023-09-18 17:10:02,15.08842826,0.0001303,53.2172,92.7261,86.46,273.6541,-5.9022e-05,-1.227e-05,0.0,0 STARLINK-3536,1 51888U 22022AN  23261.71530654 -.00001227  00000-0 -59022-4 0  9999,2 51888  53.2172  92.7261 0001303  86.4600 273.6541 15.08842826 86938,6917.872,95.437,540.638,538.835,0.0
51888.0,STARLINK-3536,PAYLOAD,2023-09-18 20:20:48,15.0885006,0.0001337,53.2171,92.1315,95.8766,264.2378,-5.9138e-05,-1.229e-05,0.0,0 STARLINK-3536,1 51888U 22022AN  23261.84778166 -.00001229  00000-0 -59138-4 0  9995,2 51888  53.2171  92.1315 0001337  95.8766 264.2378 15.08850060 86950,6917.85,95.437,540.64,538.79,0.0
51888.0,STARLINK-3536,PAYLOAD,2023-09-19 05:53:07,15.088339,0.0001366,53.2171,90.3473,101.855,258.2595,0.00014908,2.085e-05,0.0,0 STARLINK-3536,1 51888U 22022AN  23262.24522698  .00002085  00000-0  14908-3 0  9991,2 51888  53.2171  90.3473 0001366 101.8550 258.2595 15.08833900 87012,6917.899,95.438,540.709,538.819,0.0
51888.0,STARLINK-3536,PAYLOAD,2023-09-20 12:05:27,15.08831533,0.0001484,53.2172,84.6975,81.6611,278.4549,3.2777e-05,2.34e-06,0.0,0 STARLINK-3536,1 51888U 22022AN  23263.50379474  .00000234  00000-0  32777-4 0  9992,2 51888  53.2172  84.6975 0001484  81.6611 278.4549 15.08831533 87204,6917.906,95.438,540.798,538.745,0.0
51888.0,STARLINK-3536,PAYLOAD,2023-09-20 18:27:00,15.08835153,0.0001416,53.2168,83.5088,83.8923,276.223,5.7012e-06,-1.97e-06,0.0,0 STARLINK-3536,1 51888U 22022AN  23263.76875706 -.00000197  00000-0  57012-5 0  9998,2 51888  53.2168  83.5088 0001416  83.8923 276.2230 15.08835153 87246,6917.895,95.438,540.74,538.781,0.0
